COMMENT,ORIGINATOR,NORAD_CAT_ID,OBJECT_NAME,OBJECT_TYPE,CLASSIFICATION_TYPE,INTLDES,EPOCH,EPOCH_MICROSECONDS,MEAN_MOTION,ECCENTRICITY,INCLINATION,RA_OF_ASC_NODE,ARG_OF_PERICENTER,MEAN_ANOMALY,EPHEMERIS_TYPE,ELEMENT_SET_NO,REV_AT_EPOCH,BSTAR,MEAN_MOTION_DOT,MEAN_MOTION_DDOT,FILE,TLE_LINE0,TLE_LINE1,TLE_LINE2,OBJECT_ID,OBJECT_NUMBER,SEMIMAJOR_AXIS,PERIOD,APOGEE,PERIGEE
GENERATED VIA SPACETRACK.ORG API,18 SPCS,41616,FLOCK 2P 5,PAYLOAD,U,16040T,5/16/2019 18:05,742304,15.25347002,0.0011439,97.3759,202.6085,140.0993,220.1088,0,999,16105,8.46E-05,2.06E-05,0,2474111,0 FLOCK 2P 5,1 41616U 16040T   19136.75352711 +.00002064 +00000-0 +84589-4 0  9990,2 41616 097.3759 202.6085 0011439 140.0993 220.1088 15.25347002161050,2016-040T,41616,6867.88,94.404,497.601,481.889
GENERATED VIA SPACETRACK.ORG API,18 SPCS,41616,FLOCK 2P 5,PAYLOAD,U,16040T,5/17/2019 19:16,469664,15.25351128,0.001152,97.3756,203.6433,136.7681,223.4463,0,999,16121,6.94E-05,1.68E-05,0,2474437,0 FLOCK 2P 5,1 41616U 16040T   19137.80314201  .00001679  00000-0  69357-4 0  9996,2 41616  97.3756 203.6433 0011520 136.7681 223.4463 15.25351128161217,2016-040T,41616,6867.868,94.404,497.645,481.821
GENERATED VIA SPACETRACK.ORG API,18 SPCS,41616,FLOCK 2P 5,PAYLOAD,U,16040T,5/17/2019 20:50,368416,15.25351413,0.0011526,97.3756,203.7079,136.5888,223.626,0,999,16122,6.83E-05,1.65E-05,0,2477278,0 FLOCK 2P 5,1 41616U 16040T   19137.86874269 +.00001653 +00000-0 +68288-4 0  9991,2 41616 097.3756 203.7079 0011526 136.5888 223.6260 15.25351413161222,2016-040T,41616,6867.867,94.404,497.648,481.816
GENERATED VIA SPACETRACK.ORG API,18 SPCS,41616,FLOCK 2P 5,PAYLOAD,U,16040T,5/18/2019 20:27,917088,15.25355299,0.0011583,97.3754,204.6781,133.5725,226.6477,0,999,16137,6.38E-05,1.54E-05,0,2475438,0 FLOCK 2P 5,1 41616U 16040T   19138.85275367  .00001540  00000-0  63834-4 0  9992,2 41616  97.3754 204.6781 0011583 133.5725 226.6477 15.25355299161375,2016-040T,41616,6867.855,94.404,497.675,481.765
GENERATED VIA SPACETRACK.ORG API,18 SPCS,41616,FLOCK 2P 5,PAYLOAD,U,16040T,5/19/2019 20:04,239392,15.25359781,0.0011656,97.3753,205.6482,130.6691,229.5562,0,999,16152,7.18E-05,1.74E-05,0,2477283,0 FLOCK 2P 5,1 41616U 16040T   19139.83676203 +.00001742 +00000-0 +71813-4 0  9995,2 41616 097.3753 205.6482 0011656 130.6691 229.5562 15.25359781161528,2016-040T,41616,6867.842,94.403,497.712,481.702
